NORAD_CAT_ID,OBJECT_NAME,OBJECT_TYPE,EPOCH,MEAN_MOTION,ECCENTRICITY,INCLINATION,RA_OF_ASC_NODE,ARG_OF_PERICENTER,MEAN_ANOMALY,BSTAR,MEAN_MOTION_DOT,MEAN_MOTION_DDOT,TLE_LINE0,TLE_LINE1,TLE_LINE2,SEMIMAJOR_AXIS,PERIOD,APOGEE,PERIGEE,DECAYED
53801.0,STARLINK-4715,PAYLOAD,2022-10-21 22:00:00,15.73235333,0.0001962,53.2151,64.8884,33.0401,161.9397,-0.00054226,-0.00076159,0.0,0 STARLINK-4715,1 53801U 22111AE  22294.91667824 -.00076159  00000-0 -54226-3 0  9998,2 53801  53.2151  64.8884 0001962  33.0401 161.9397 15.73235333  6358,6727.794,91.531,350.97900000000016,348.339,0.0
53801.0,STARLINK-4715,PAYLOAD,2022-10-22 14:00:01,15.731859,0.0001978,53.2157,61.589,35.177,337.61300000000006,0.00025778,0.00035691,0.0,0 STARLINK-4715,1 53801U 22111AE  22295.58334491  .00035691  00000-0  25778-3 0  9997,2 53801  53.2157  61.5890 0001978  35.1770 337.6130 15.73185900  1305,6727.935,91.534,351.131,348.47,0.0
53801.0,STARLINK-4715,PAYLOAD,2022-10-22 22:00:00,15.73260219,0.0002077,53.2158,59.9396,28.9436,72.7782,-0.00059482,-0.00083499,0.0,0 STARLINK-4715,1 53801U 22111AE  22295.91667824 -.00083499  00000-0 -59482-3 0  9993,2 53801  53.2158  59.9396 0002077  28.9436  72.7782 15.73260219  1305,6727.723000000001,91.53,350.986,348.191,0.0
53801.0,STARLINK-4715,PAYLOAD,2022-10-23 14:00:01,15.73320201,0.0002053,53.2162,56.6403,26.8717,252.7577,-0.00037839,-0.00053667,0.0,0 STARLINK-4715,1 53801U 22111AE  22296.58334491 -.00053667  00000-0 -37839-3 0  9994,2 53801  53.2162  56.6403 0002053  26.8717 252.7577 15.73320201  1306,6727.552,91.526,350.7990000000001,348.036,0.0
53801.0,STARLINK-4715,PAYLOAD,2022-10-23 22:00:00,15.73317029,0.0002128,53.2158,54.9905,21.2714,347.4002,-0.0011597,-0.00161126,0.0,0 STARLINK-4715,1 53801U 22111AE  22296.91667824 -.00161126  00000-0 -11597-2 0  9992,2 53801  53.2158  54.9905 0002128  21.2714 347.4002 15.73317029  6661,6727.562,91.526,350.858,347.995,0.0
53801.0,STARLINK-4715,PAYLOAD,2022-10-24 14:00:01,15.73032038,0.0002145,53.2164,51.6917,22.4152,164.1323,0.0010915,0.00154301,0.0,0 STARLINK-4715,1 53801U 22111AE  22297.58334491  .00154301  00000-0  10915-2 0  9995,2 53801  53.2164  51.6917 0002145  22.4152 164.1323 15.73032038  1303,6728.374,91.543,351.682,348.796,0.0
53801.0,STARLINK-4715,PAYLOAD,2022-10-24 22:00:00,15.73171988,0.0002186,53.2165,50.0423,19.0009,256.3174,0.00027944,0.00038733,0.0,0 STARLINK-4715,1 53801U 22111AE  22297.91667824  .00038733  00000-0  27944-3 0  9992,2 53801  53.2165  50.0423 0002186  19.0009 256.3174 15.73171988  1303,6727.975,91.535,351.311,348.369,0.0
53801.0,STARLINK-4715,PAYLOAD,2022-10-25 06:00:00,15.73195211,0.0002117,53.2171,48.3912,24.811,339.416,-5.6992e-06,-1.421e-05,0.0,0 STARLINK-4715,1 53801U 22111AE  22298.25001157 -.00001421  00000-0 -56992-5 0  9994,2 53801  53.2171  48.3912 0002117  24.8110 339.4160 15.73195211  6874,6727.909000000002,91.533,351.1980000000001,348.35,0.0
53801.0,STARLINK-4715,PAYLOAD,2022-10-25 14:00:01,15.73218549,0.0002417,53.217,46.7438,24.3096,68.8354,-0.00047988,-0.00067495,0.0,0 STARLINK-4715,1 53801U 22111AE  22298.58334491 -.00067495  00000-0 -47988-3 0  9996,2 53801  53.2170  46.7438 0002417  24.3096  68.8354 15.73218549  1300,6727.842,91.532,351.333,348.081,0.0
53801.0,STARLINK-4715,PAYLOAD,2022-10-25 22:00:01,15.73155653,0.0002384999999999,53.2167,45.0939,20.1083,162.0318,7.4561e-05,9.836e-05,0.0,0 STARLINK-4715,1 53801U 22111AE  22298.91668981  .00009836  00000-0  74561-4 0  9998,2 53801  53.2167  45.0939 0002385  20.1083 162.0318 15.73155653  1301,6728.022,91.536,351.491,348.282,0.0
53801.0,STARLINK-4715,PAYLOAD,2022-10-26 06:00:00,15.73173774,0.0002213,53.2169,43.4432,24.16,246.7939,-0.0001179,-0.00017117,0.0,0 STARLINK-4715,1 53801U 22111AE  22299.25001157 -.00017117  00000-0 -11790-3 0  9999,2 53801  53.2169  43.4432 0002213  24.1600 246.7939 15.73173774  7031,6727.97,91.535,351.324,348.346,0.0
53801.0,STARLINK-4715,PAYLOAD,2022-10-26 14:00:01,15.73170102,0.0002483,53.2171,41.7959,21.9344,337.9174,0.00088796,0.00125728,0.0,0 STARLINK-4715,1 53801U 22111AE  22299.58334491  .00125728  00000-0  88796-3 0  9991,2 53801  53.2171  41.7959 0002483  21.9344 337.9174 15.73170102  1308,6727.98,91.535,351.516,348.175,0.0
53801.0,STARLINK-4715,PAYLOAD,2022-10-26 22:00:00,15.73299998,0.000246,53.2172,40.1459,16.5941,72.1958,-0.00067339,-0.00094492,0.0,0 STARLINK-4715,1 53801U 22111AE  22299.91667824 -.00094492  00000-0 -67339-3 0  9992,2 53801  53.2172  40.1459 0002460  16.5941  72.1958 15.73299998  1308,6727.61,91.527,351.13,347.82,0.0
53801.0,STARLINK-4715,PAYLOAD,2022-10-27 08:00:01,15.73228614,0.0002433,53.2177,38.0829,22.0158,268.0348,0.0001026,0.0001382,0.0,0 STARLINK-4715,1 53801U 22111AE  22300.33334491  .00013820  00000-0  10260-3 0  9997,2 53801  53.2177  38.0829 0002433  22.0158 268.0348 15.73228614  7203,6727.814,91.532,351.315,348.042,0.0
53801.0,STARLINK-4715,PAYLOAD,2022-10-27 14:00:01,15.7324369,0.0002688,53.2175,36.8474,20.8314,246.0052,-1.747e-05,-3.079e-05,0.0,0 STARLINK-4715,1 53801U 22111AE  22300.58335648 -.00003079  00000-0 -17470-4 0  9997,2 53801  53.2175  36.8474 0002688  20.8314 246.0052 15.73243690  1309,6727.771,91.531,351.444,347.827,0.0
53801.0,STARLINK-4715,PAYLOAD,2022-10-27 22:00:00,15.73270427,0.0002614,53.2171,35.1971,15.998,339.7575,-0.00042127,-0.00059517,0.0,0 STARLINK-4715,1 53801U 22111AE  22300.91667824 -.00059517  00000-0 -42127-3 0  9992,2 53801  53.2171  35.1971 0002614  15.9980 339.7575 15.73270427  1300,6727.694,91.529,351.3180000000001,347.801,0.0
53801.0,STARLINK-4715,PAYLOAD,2022-10-28 08:00:01,15.73244169,0.0002473,53.2173,33.1346,16.4268,180.6083,-0.00029725,-0.00042215,0.0,0 STARLINK-4715,1 53801U 22111AE  22301.33335648 -.00042215  00000-0 -29725-3 0  9991,2 53801  53.2173  33.1346 0002473  16.4268 180.6083 15.73244169  7367,6727.769,91.531,351.298,347.97,0.0
53801.0,STARLINK-4715,PAYLOAD,2022-10-28 14:00:01,15.73190013,0.0002774999999999,53.2172,31.8989,16.2003,157.5668,0.00028565,0.00039645,0.0,0 STARLINK-4715,1 53801U 22111AE  22301.58335648  .00039645  00000-0  28565-3 0  9990,2 53801  53.2172  31.8989 0002775  16.2003 157.5668 15.73190013  1302,6727.924,91.534,351.656,347.922,0.0
53801.0,STARLINK-4715,PAYLOAD,2022-10-28 22:00:01,15.73253508,0.0002745,53.2171,30.2484,15.9459,246.7494,-0.00086429,-0.00120502,0.0,0 STARLINK-4715,1 53801U 22111AE  22301.91668981 -.00120502  00000-0 -86429-3 0  9994,2 53801  53.2171  30.2484 0002745  15.9459 246.7494 15.73253508  1309,6727.743,91.53,351.454,347.761,0.0
53801.0,STARLINK-4715,PAYLOAD,2022-10-29 08:00:01,15.73193264,0.0002786,53.2176,28.186,20.2862,83.5158,0.00031397,0.00043665,0.0,0 STARLINK-4715,1 53801U 22111AE  22302.33334491  .00043665  00000-0  31397-3 0  9993,2 53801  53.2176  28.1860 0002786  20.2862  83.5158 15.73193264  7515,6727.9140000000025,91.534,351.654,347.905,0.0
53801.0,STARLINK-4715,PAYLOAD,2022-10-29 12:00:00,15.73250978,0.000295,53.2173,27.3624,18.2532,310.0164,-0.00025548,-0.0003641,0.0,0 STARLINK-4715,1 53801U 22111AE  22302.50001157 -.00036410  00000-0 -25548-3 0  9995,2 53801  53.2173  27.3624 0002950  18.2532 310.0164 15.73250978  1307,6727.75,91.53,351.6,347.63,0.0
53801.0,STARLINK-4715,PAYLOAD,2022-10-29 22:00:01,15.73269729,0.0002904999999999,53.2171,25.2996,14.4132,155.1274,-0.00053582,-0.00075394,0.0,0 STARLINK-4715,1 53801U 22111AE  22302.91668981 -.00075394  00000-0 -53582-3 0  9997,2 53801  53.2171  25.2996 0002905  14.4132 155.1274 15.73269729  1302,6727.696,91.529,351.516,347.607,0.0
53801.0,STARLINK-4715,PAYLOAD,2022-10-30 14:00:01,15.73174868,0.0003061,53.2171,22.0018,13.5139,333.8914,-0.00041137,-0.00057914,0.0,0 STARLINK-4715,1 53801U 22111AE  22303.58334491 -.00057914  00000-0 -41137-3 0  9998,2 53801  53.2171  22.0018 0003061  13.5139 333.8914 15.73174868  1308,6727.967,91.535,351.891,347.772,0.0
53801.0,STARLINK-4715,PAYLOAD,2022-10-30 22:00:01,15.73226388,0.0003075,53.2171,20.3509,8.3306,68.0038,-0.00053297,-0.00074865,0.0,0 STARLINK-4715,1 53801U 22111AE  22303.91668981 -.00074865  00000-0 -53297-3 0  9993,2 53801  53.2171  20.3509 0003075   8.3306  68.0038 15.73226388  1306,6727.82,91.532,351.754,347.616,0.0
53801.0,STARLINK-4715,PAYLOAD,2022-10-31 14:00:01,15.7315006,0.0003398999999999,53.2175,17.0533,11.9712,242.1302,0.00029245,0.00040542,0.0,0 STARLINK-4715,1 53801U 22111AE  22304.58334491  .00040542  00000-0  29245-3 0  9992,2 53801  53.2175  17.0533 0003399  11.9712 242.1302 15.73150060  1302,6728.038000000001,91.536,352.189,347.616,0.0
53801.0,STARLINK-4715,PAYLOAD,2022-10-31 22:00:01,15.7315409,0.0003261,53.2172,15.4022,11.6462,331.4158,0.00027246,0.00037721,0.0,0 STARLINK-4715,1 53801U 22111AE  22304.91668981  .00037721  00000-0  27246-3 0  9997,2 53801  53.2172  15.4022 0003261  11.6462 331.4158 15.73154090  7923,6728.026,91.536,352.085,347.69699999999995,0.0
53801.0,STARLINK-4715,PAYLOAD,2022-11-01 14:00:01,15.73167149,0.0003561,53.2172,12.105,14.9819,145.84799999999996,0.00071834,0.00101298,0.0,0 STARLINK-4715,1 53801U 22111AE  22305.58334491  .00101298  00000-0  71834-3 0  9990,2 53801  53.2172  12.1050 0003561  14.9819 145.8480 15.73167149  1303,6727.989000000001,91.535,352.25,347.458,0.0
53801.0,STARLINK-4715,PAYLOAD,2022-11-01 22:00:00,15.73260194,0.0003388,53.2174,10.4538,12.9208,236.838,-0.00090892,-0.00126658,0.0,0 STARLINK-4715,1 53801U 22111AE  22305.91667824 -.00126658  00000-0 -90892-3 0  9990,2 53801  53.2174  10.4538 0003388  12.9208 236.8380 15.73260194  1308,6727.724,91.53,351.86800000000005,347.309,0.0
53801.0,STARLINK-4715,PAYLOAD,2022-11-02 06:00:00,15.73183547,0.0003398,53.2176,8.804,13.4492,325.2545,-0.00034859,-0.00049242,0.0,0 STARLINK-4715,1 53801U 22111AE  22306.25001157 -.00049242  00000-0 -34859-3 0  9993,2 53801  53.2176   8.8040 0003398  13.4492 325.2545 15.73183547  8131,6727.941999999999,91.534,352.093,347.521,0.0
